[{"OBJECT_NAME":"LEMUR-2-PETERG","OBJECT_ID":"2017-042S","EPOCH":"2026-03-09T11:34:35.656032","MEAN_MOTION":15.29611459,"ECCENTRICITY":0.00037,"INCLINATION":97.398,"RA_OF_ASC_NODE":253.6596,"ARG_OF_PERICENTER":341.6938,"MEAN_ANOMALY":18.4169,"EPHEMERIS_TYPE":0,"CLASSIFICATION_TYPE":"U","NORAD_CAT_ID":42841,"ELEMENT_SET_NO":999,"REV_AT_EPOCH":47317,"BSTAR":0.00081076471,"MEAN_MOTION_DOT":0.0002324,"MEAN_MOTION_DDOT":0},{"OBJECT_NAME":"STARLINK-35953","OBJECT_ID":"2025-271W","EPOCH":"2026-03-09T11:24:41.245632","MEAN_MOTION":15.30184966,"ECCENTRICITY":0.00014403,"INCLINATION":53.1578,"RA_OF_ASC_NODE":140.9441,"ARG_OF_PERICENTER":79.2591,"MEAN_ANOMALY":280.8572,"EPHEMERIS_TYPE":0,"CLASSIFICATION_TYPE":"U","NORAD_CAT_ID":66637,"ELEMENT_SET_NO":999,"REV_AT_EPOCH":1753,"BSTAR":0.00032775245,"MEAN_MOTION_DOT":9.356e-5,"MEAN_MOTION_DDOT":0}]
