LEMUR-2-PETERG          
1 42841U 17042S   26068.48235713  .00023240  00000+0  81076-3 0  9993
2 42841  97.3980 253.6596 0003700 341.6938  18.4169 15.29611459473171
STARLINK-35953          
1 66637U 25271W   26068.47547738  .00009356  00000+0  32775-3 0  9991
2 66637  53.1578 140.9441 0001440  79.2591 280.8572 15.30184966 17535
